{
"type": "FeatureCollection",
"name": "Линия Метро",
"crs": { "type": "name", "properties": { "name": "urn:ogc:def:crs:OGC:1.3:CRS84" } },
"features": [
{ "type": "Feature", "properties": { "id": "2", "name_ru": "Юнусабдская линия", "name_uz": "Юнусобод йўли" }, "geometry": { "type": "MultiLineString", "coordinates": [ [ [ 69.270633799429262, 41.297187611720595 ], [ 69.276145679379312, 41.300782775423819 ], [ 69.276372859056295, 41.30093981685431 ], [ 69.276792703986501, 41.301201652969034 ], [ 69.277363004551489, 41.30158221729117 ], [ 69.279156251109981, 41.302759180517249 ], [ 69.281994150713643, 41.304915388675063 ], [ 69.28307296064132, 41.305803907171153 ], [ 69.284167235823716, 41.306881460240554 ], [ 69.284764828334019, 41.307463414178997 ], [ 69.285620200357982, 41.308308166370722 ], [ 69.285661163534925, 41.308351217708058 ], [ 69.286184979240275, 41.308988841287004 ], [ 69.286388938886574, 41.309296289099933 ], [ 69.286614620376241, 41.309827431034904 ], [ 69.286706270556792, 41.310354094590835 ], [ 69.286682999552099, 41.310869014804183 ], [ 69.286519393676244, 41.311398719749242 ], [ 69.285964373551693, 41.312173596093757 ], [ 69.284959607181278, 41.312992890079308 ], [ 69.284580811727622, 41.313206749111615 ], [ 69.284399523773232, 41.313344333312074 ], [ 69.283949068696387, 41.313590846895707 ], [ 69.283754579175934, 41.313745770663282 ], [ 69.283231510517979, 41.314055749929892 ], [ 69.283002425278667, 41.314210290791145 ], [ 69.282781264479198, 41.314352782241095 ], [ 69.281973383018709, 41.314965861890101 ], [ 69.2815508027726, 41.315391537040554 ], [ 69.28142060076155, 41.315538615125242 ], [ 69.281203522671888, 41.315890406518974 ], [ 69.281128373664302, 41.316225009661025 ], [ 69.281156094175827, 41.316734991923973 ], [ 69.281566462806879, 41.319225290895311 ], [ 69.281918961724358, 41.320797395132544 ], [ 69.281957140123936, 41.320967408424437 ], [ 69.281990467620972, 41.321116169691024 ], [ 69.282463340786535, 41.323684997193411 ], [ 69.282771462928991, 41.32502620914341 ], [ 69.283145790907881, 41.32562843340439 ], [ 69.283390761485862, 41.326216822786712 ], [ 69.283429748369187, 41.326941407363783 ], [ 69.283446277370416, 41.327248211625452 ], [ 69.283455889343955, 41.327426707899221 ], [ 69.284019761847802, 41.331937185551183 ], [ 69.284265361246469, 41.333077218108635 ], [ 69.284277219008231, 41.333227772955247 ], [ 69.284354563954196, 41.334214532643713 ], [ 69.284404240789399, 41.334745780764024 ], [ 69.284347557094975, 41.335291324096062 ], [ 69.284408642534302, 41.336386309126453 ], [ 69.28467678964661, 41.33755452467679 ], [ 69.284728981764601, 41.33778209494433 ], [ 69.285324205471866, 41.341040363425854 ], [ 69.285756295123534, 41.343406011456203 ], [ 69.285943593860267, 41.344752010369568 ], [ 69.286239498914867, 41.346120506243622 ], [ 69.28706442184027, 41.349135250003989 ], [ 69.287934619855989, 41.352315200201275 ], [ 69.288144286643316, 41.353419272037051 ], [ 69.288298527377592, 41.354003027364314 ], [ 69.289103328040639, 41.358030573933448 ], [ 69.289115185802387, 41.358089977200329 ], [ 69.289457174431035, 41.359863689268437 ], [ 69.289430404635581, 41.360197915237315 ], [ 69.289365995429705, 41.36047570513383 ], [ 69.289189027318741, 41.361019279894329 ], [ 69.288963729845477, 41.361856680898384 ], [ 69.288877761072783, 41.362231215460589 ], [ 69.288850991277329, 41.362581408382979 ], [ 69.288899320639601, 41.363024304665082 ], [ 69.289022659328111, 41.363426879869969 ], [ 69.28944109458746, 41.364071089406728 ], [ 69.289816590376219, 41.364465702522537 ], [ 69.290310124793322, 41.364900495579988 ], [ 69.290760809571353, 41.365295103665972 ], [ 69.291366902893557, 41.36582650274373 ], [ 69.29182989459099, 41.366238027289278 ], [ 69.292518183761686, 41.366940795167906 ], [ 69.29283169579584, 41.36734428998728 ], [ 69.293198477926339, 41.367927381087398 ], [ 69.293471206446597, 41.36852307380191 ], [ 69.293640628709198, 41.369059772356756 ], [ 69.293884611140356, 41.369947428746201 ], [ 69.294344189239709, 41.371473748747462 ], [ 69.294844191526849, 41.37313431672947 ], [ 69.295623569867359, 41.375760007978421 ], [ 69.296088987016049, 41.377518004443232 ], [ 69.2961746078457, 41.377827107347038 ], [ 69.297075157534962, 41.380874311053404 ], [ 69.297095818786488, 41.380944680217567 ] ] ] } },
{ "type": "Feature", "properties": { "id": "3", "name_ru": "Узбекистанская линия", "name_uz": "Ўзбекистон йўли" }, "geometry": { "type": "MultiLineString", "coordinates": [ [ [ 69.323229966358213, 41.293291097670213 ], [ 69.323163041869549, 41.293316812935224 ], [ 69.321874228931421, 41.293812285392704 ], [ 69.321325358292825, 41.294023270069886 ], [ 69.320716210698663, 41.294205974419754 ], [ 69.32028466003618, 41.294354999236447 ], [ 69.31951291737559, 41.294621528732179 ], [ 69.313661561109413, 41.296955926910847 ], [ 69.309579616458379, 41.298287970450062 ], [ 69.306100890520625, 41.298865133626883 ], [ 69.304697901709886, 41.299099722812777 ], [ 69.304193318014796, 41.299184082929393 ], [ 69.303896784139511, 41.299228962466962 ], [ 69.303612916509735, 41.299271884822879 ], [ 69.302562426616475, 41.299469624242377 ], [ 69.302387075473021, 41.299502625745831 ], [ 69.301393898094886, 41.29961607250452 ], [ 69.301308288648329, 41.299613035562331 ], [ 69.300552356336738, 41.299585770563901 ], [ 69.299015788043249, 41.299530295705161 ], [ 69.298647119450649, 41.299441009428335 ], [ 69.297428677411077, 41.299115692887113 ], [ 69.296292235561396, 41.298609173582115 ], [ 69.29587214218904, 41.298305907321982 ], [ 69.294334549698505, 41.297177269890568 ], [ 69.293802055965742, 41.29688992131004 ], [ 69.291843128799769, 41.295684434057378 ], [ 69.290895287369395, 41.295070016651245 ], [ 69.28979683275314, 41.294371468498291 ], [ 69.289473111241023, 41.294206876998281 ], [ 69.2893157343659, 41.294146523520794 ], [ 69.288724509817726, 41.293905011440913 ], [ 69.288460493623319, 41.293751001167919 ], [ 69.28819988371653, 41.293573408884335 ], [ 69.285133727534529, 41.291617223456527 ], [ 69.284398562057248, 41.291459650704141 ], [ 69.283701524791667, 41.291450544019895 ], [ 69.282754159504918, 41.291460092536262 ], [ 69.282119667248722, 41.291530217549685 ], [ 69.28155727208852, 41.291675948808333 ], [ 69.280918822395606, 41.291939752346494 ], [ 69.280127642260808, 41.292295348523879 ], [ 69.27956844363986, 41.292818789534181 ], [ 69.277550018348208, 41.294709602938987 ], [ 69.275619690274496, 41.296525887218849 ], [ 69.274622642330968, 41.297447927050328 ], [ 69.273778787945773, 41.298316585770003 ], [ 69.273372659605826, 41.298710720031359 ], [ 69.269944329155507, 41.301821867493963 ], [ 69.26945510665179, 41.302277391813519 ], [ 69.268049333063672, 41.303586382285808 ], [ 69.267807955746818, 41.30377702287791 ], [ 69.267549779934157, 41.30395146696678 ], [ 69.267013575541071, 41.304273698050793 ], [ 69.266428515106611, 41.304683388412499 ], [ 69.265917015577031, 41.304827722272712 ], [ 69.26543018201086, 41.304957561577339 ], [ 69.26375367920653, 41.305424269346659 ], [ 69.262998620890144, 41.305667169501753 ], [ 69.261960066047919, 41.305963659016541 ], [ 69.26121936691851, 41.306144882595419 ], [ 69.260791785977275, 41.306236073377377 ], [ 69.260132898374479, 41.306331394366055 ], [ 69.259110748061374, 41.306445574096458 ], [ 69.257504452003914, 41.306597141473603 ], [ 69.256877861081264, 41.306692371578322 ], [ 69.256351872467008, 41.306812636234575 ], [ 69.255583805990469, 41.307039295859454 ], [ 69.255145949247705, 41.30726040711388 ], [ 69.254813194500471, 41.307433166077743 ], [ 69.254413969092582, 41.307743808805881 ], [ 69.254248532281551, 41.307867476723231 ], [ 69.254080146987093, 41.308053704316741 ], [ 69.253821242966978, 41.308347795322902 ], [ 69.253635593859116, 41.308711194710511 ], [ 69.253567706132756, 41.308895395624162 ], [ 69.253481443236609, 41.309072419257262 ], [ 69.253412040839592, 41.309277675026756 ], [ 69.253360908116619, 41.309463041864198 ], [ 69.253312375393932, 41.309701934218481 ], [ 69.253319158276895, 41.310011678860448 ], [ 69.253335205858633, 41.310654018673716 ], [ 69.253385456025342, 41.311167567533587 ], [ 69.253420570672759, 41.311583410008488 ], [ 69.253438761082577, 41.311748775502373 ], [ 69.253481234677935, 41.3126226246399 ], [ 69.253618976269451, 41.313685728230084 ], [ 69.254087524775557, 41.317041823780187 ], [ 69.254118775660743, 41.317385196512603 ], [ 69.254151833396094, 41.317885549954298 ], [ 69.254163266572817, 41.31795349127627 ], [ 69.254214174278189, 41.318325089800311 ], [ 69.254291463330546, 41.318915566516004 ], [ 69.254337965862732, 41.319282362862758 ], [ 69.254424510498524, 41.319892968311123 ], [ 69.254469719498132, 41.320234505501062 ], [ 69.254698093547844, 41.321513936490156 ], [ 69.25472949200271, 41.32199624886551 ], [ 69.254758711965735, 41.322328799094528 ], [ 69.254934547367881, 41.324045315850476 ], [ 69.254709693054636, 41.324697810771731 ], [ 69.254319119796719, 41.325208723766245 ], [ 69.253027704993613, 41.325923714227997 ], [ 69.250143729666902, 41.327393702815094 ], [ 69.248872933558346, 41.327679149892099 ], [ 69.24750989896684, 41.32784147934246 ], [ 69.246753527493937, 41.327857538685812 ], [ 69.246345066036071, 41.327877660756023 ], [ 69.245464128257609, 41.327869919239625 ], [ 69.244750753443626, 41.327861814797672 ], [ 69.244129618459993, 41.32776810115525 ], [ 69.237347554543661, 41.326087334614122 ], [ 69.235878842281409, 41.325486474596055 ], [ 69.235224244021651, 41.325396390246816 ], [ 69.232844374912162, 41.325242440180716 ], [ 69.23218055017584, 41.32524859292289 ], [ 69.231057983773383, 41.325493847096659 ], [ 69.228974087334521, 41.326692537501152 ], [ 69.219745203741866, 41.331965961458458 ], [ 69.219406997733046, 41.33211317318213 ], [ 69.218489368670319, 41.332632094463811 ], [ 69.218289313856545, 41.332746630282379 ], [ 69.209723382747001, 41.33766460021603 ], [ 69.206954281769995, 41.339233224526048 ], [ 69.205609989031231, 41.339988291067641 ], [ 69.2055255375152, 41.340034153775093 ], [ 69.205222845388548, 41.340217541376951 ], [ 69.204985621858114, 41.340409833675615 ], [ 69.204889393965061, 41.34064548128427 ], [ 69.204862179820452, 41.340747479218521 ], [ 69.204850538492906, 41.340852757524054 ], [ 69.204873929347869, 41.341058720015241 ], [ 69.204945107103171, 41.341360532173653 ], [ 69.205057010682481, 41.341669489382205 ], [ 69.20546045445559, 41.342814573590047 ], [ 69.20555008036186, 41.343397841079884 ], [ 69.205958687808902, 41.344154355880065 ], [ 69.206786336817927, 41.34578737802083 ] ] ] } },
{ "type": "Feature", "properties": { "id": "4", "name_ru": "Наземная кольцевая линия «30-летия Независимости Узбекистана»", "name_uz": "Ўзбекистон мустақиллигининг 30 йиллиги ер усти ҳалқа йўли" }, "geometry": { "type": "MultiLineString", "coordinates": [ [ [ 69.32028466003618, 41.294354999236447 ], [ 69.320397757930451, 41.294360601159056 ], [ 69.320587482118441, 41.294389825639087 ], [ 69.320829667919043, 41.29444132278568 ], [ 69.321285742588799, 41.294409601088134 ], [ 69.321921349100435, 41.29441002028004 ], [ 69.322387476322518, 41.294458833289688 ], [ 69.322748551408154, 41.294527097065668 ], [ 69.32359561808866, 41.294709372210313 ], [ 69.32418241213081, 41.294834031191414 ], [ 69.324602343636911, 41.294921866298864 ], [ 69.325971085616175, 41.295255822706658 ], [ 69.326266272018543, 41.295320547612185 ], [ 69.327111496869378, 41.295506015494674 ], [ 69.328917380085045, 41.295906915884153 ], [ 69.329564256921131, 41.296062483469349 ], [ 69.330773029967432, 41.296349590741265 ], [ 69.331379572447275, 41.296463110475244 ], [ 69.332302411738652, 41.296675503882078 ], [ 69.332600023592292, 41.296777617148614 ], [ 69.332879399645648, 41.296901799623505 ], [ 69.333668210296622, 41.297308630553644 ], [ 69.334202258733029, 41.297563607238523 ], [ 69.334755890442636, 41.297776401998874 ], [ 69.335914986653734, 41.298185319635408 ], [ 69.336194272875574, 41.298303695379794 ], [ 69.336314377629051, 41.298369092149869 ], [ 69.336452628351296, 41.298444274733299 ], [ 69.336695892130237, 41.298609217189018 ], [ 69.336932238881488, 41.298786712082531 ], [ 69.337341780819514, 41.299155602966223 ], [ 69.337751502420602, 41.29953501984339 ], [ 69.33836765687397, 41.300082410171498 ], [ 69.338980936718443, 41.300622912276445 ], [ 69.339234261628562, 41.30077840112709 ], [ 69.339502857898523, 41.300907704941046 ], [ 69.339806039306907, 41.301000970894059 ], [ 69.34013033112447, 41.301076690332337 ], [ 69.340435488826486, 41.301148293035794 ], [ 69.340749719512871, 41.301196073118398 ], [ 69.341079580885207, 41.301226779226454 ], [ 69.341390757299607, 41.301236092284945 ], [ 69.341707143942685, 41.301236902116052 ], [ 69.342326981488725, 41.30123818434862 ], [ 69.342649117349609, 41.301228871290434 ], [ 69.342960922584723, 41.301211999804828 ], [ 69.34328512457077, 41.30117947156824 ], [ 69.343599265425624, 41.301131286557272 ], [ 69.344106274571985, 41.300968375066027 ], [ 69.344382596353384, 41.30086228666817 ], [ 69.344653797737649, 41.300719283014004 ], [ 69.345619486668085, 41.300094085442225 ], [ 69.34634029485207, 41.299609526206737 ], [ 69.347065864107037, 41.299182733168387 ], [ 69.347825030353661, 41.298737985395611 ], [ 69.348879419788958, 41.298160169830815 ], [ 69.349613576084337, 41.297648104321297 ], [ 69.350812814599195, 41.296989236096323 ], [ 69.351303217302231, 41.296626978089989 ], [ 69.351979469048132, 41.296142595569137 ], [ 69.352228931202518, 41.295971302686759 ], [ 69.352431411467563, 41.29579778213332 ], [ 69.352855056955562, 41.29543980595087 ], [ 69.353821374706683, 41.294474731790878 ], [ 69.354194534875703, 41.29408327166567 ], [ 69.355486042759679, 41.292761468947305 ], [ 69.355874025130888, 41.292350289968589 ], [ 69.356989912376832, 41.291177214226025 ], [ 69.357898109129081, 41.290257502692583 ], [ 69.358226533196941, 41.28987067460092 ], [ 69.358399458889139, 41.289669531186576 ], [ 69.358704616591154, 41.289247532987901 ], [ 69.358960995773245, 41.288801974985674 ], [ 69.359160421766319, 41.288357426429435 ], [ 69.359300918276745, 41.28789431242096 ], [ 69.359407997458618, 41.287424310103539 ], [ 69.359511393547834, 41.286722169069485 ], [ 69.360443844812735, 41.281240524732084 ], [ 69.360725466654301, 41.27947817327707 ], [ 69.360919143429555, 41.278290284013842 ], [ 69.361146057870329, 41.27683826997832 ], [ 69.361350155102883, 41.27565688137048 ], [ 69.361604827485934, 41.274217028765541 ], [ 69.361735891685882, 41.273398147798027 ], [ 69.361851504862955, 41.272675668724169 ], [ 69.361958224718705, 41.272194416661904 ], [ 69.362147499749071, 41.271758599619048 ], [ 69.362381061722957, 41.271309411324786 ], [ 69.362627918763025, 41.270882095557631 ], [ 69.362790064671799, 41.270690481101035 ], [ 69.363186221712098, 41.270288075408025 ], [ 69.364309564974889, 41.269411484084721 ], [ 69.365097980158311, 41.26871690444915 ], [ 69.365455586019038, 41.268227369420551 ], [ 69.365586544790389, 41.267837797106495 ], [ 69.365626124903429, 41.267073192261307 ], [ 69.365518134714463, 41.266577916830848 ], [ 69.364792229777038, 41.265288585516728 ], [ 69.364385203121813, 41.26463077204717 ], [ 69.363578763297653, 41.263588693401182 ], [ 69.36263581954212, 41.262305103714944 ], [ 69.362142014087397, 41.261513908541573 ], [ 69.361042212623502, 41.259779817700107 ], [ 69.360929923212979, 41.259623015619546 ], [ 69.360002592345168, 41.25832793218909 ], [ 69.359352032416425, 41.257419238026927 ], [ 69.359110116110415, 41.25708137831559 ], [ 69.358733183017193, 41.256566785511225 ], [ 69.358122867613162, 41.255659079843497 ], [ 69.356527908826209, 41.253369263487087 ], [ 69.356506439090921, 41.253338399785584 ], [ 69.356453977478324, 41.25325891049161 ], [ 69.356255270137467, 41.252957363564938 ], [ 69.356109832892983, 41.252736723532045 ], [ 69.35523954504572, 41.251673899440739 ], [ 69.35445630394949, 41.25087668560252 ], [ 69.353599939989138, 41.250172800641955 ], [ 69.352364307315838, 41.249210974360182 ], [ 69.350282731139487, 41.248006189464967 ], [ 69.348078804421419, 41.246971318372395 ], [ 69.346765826802155, 41.246507775639962 ], [ 69.344108071202555, 41.245735692429264 ], [ 69.343301024751298, 41.245492400912099 ], [ 69.342204181789398, 41.245198923404082 ], [ 69.340802091293938, 41.244836076662864 ], [ 69.339945637502055, 41.244621893472882 ], [ 69.339400719450708, 41.244417030748771 ], [ 69.338866581182771, 41.244198725945544 ], [ 69.338232190929119, 41.243888829137042 ], [ 69.337622773840394, 41.243511520358794 ], [ 69.337174784008184, 41.243150285351888 ], [ 69.336780513429986, 41.242821470599075 ], [ 69.336185469385796, 41.242188085505404 ], [ 69.335296496580625, 41.241293284349595 ], [ 69.334022416013156, 41.239994324960513 ], [ 69.333607124857309, 41.239623005615478 ], [ 69.333148804399357, 41.239323692452075 ], [ 69.33209867383222, 41.238874416159959 ], [ 69.330943799702965, 41.238432972681473 ], [ 69.330001556801435, 41.238128385075612 ], [ 69.329077069104628, 41.237825073040931 ], [ 69.32815171538094, 41.237618398180921 ], [ 69.326480396383673, 41.237382556288992 ], [ 69.325181466481439, 41.237258725270394 ], [ 69.324718800831903, 41.237257617422024 ], [ 69.324194779437207, 41.237315633295033 ], [ 69.323635940694288, 41.237423066169605 ], [ 69.322958225984777, 41.237662888167925 ], [ 69.321654166107862, 41.238220169400577 ], [ 69.321072032243777, 41.238536068370458 ], [ 69.320543156680756, 41.238908054689659 ], [ 69.316175596565145, 41.242674191158855 ], [ 69.31566404740397, 41.243072286777057 ], [ 69.314938279246903, 41.243504893834483 ], [ 69.314008391183677, 41.243915869693481 ], [ 69.313055430868758, 41.244204239411033 ], [ 69.312356692772354, 41.244328798383791 ], [ 69.311857362649931, 41.244395397259403 ], [ 69.31135271484132, 41.244434605283139 ], [ 69.310012963751433, 41.244484170136289 ], [ 69.306637633902895, 41.244514497663971 ], [ 69.299853227287755, 41.244475565401522 ], [ 69.296562399170796, 41.244504433519367 ], [ 69.285911074846979, 41.244514497663971 ], [ 69.28061577574168, 41.244585284355331 ], [ 69.279301989638654, 41.244504433519367 ], [ 69.27808935383662, 41.244009262182061 ], [ 69.277523415207625, 41.243635331374179 ], [ 69.277018112860304, 41.243059300827227 ], [ 69.275411386143134, 41.239936705415083 ], [ 69.273238630965437, 41.235520519362709 ], [ 69.271672328436054, 41.232458500249066 ], [ 69.270358542333028, 41.230012956872045 ], [ 69.269282270791123, 41.228001947584382 ], [ 69.268595149430311, 41.226779205323929 ], [ 69.268221180777516, 41.226268833048096 ], [ 69.267675544073953, 41.225707986481382 ], [ 69.26615963703199, 41.224464999298796 ], [ 69.26538663673, 41.223853597956172 ], [ 69.264972243889446, 41.223565631281254 ], [ 69.2642800021315, 41.223216988560651 ], [ 69.260450034917653, 41.221595032241964 ], [ 69.258600673242242, 41.220847182302549 ], [ 69.255781220891492, 41.219654712885038 ], [ 69.246706350059796, 41.215925740725979 ], [ 69.234114844385346, 41.210630417450027 ], [ 69.234154371759345, 41.210646399465055 ], [ 69.218016897556339, 41.204038938175565 ] ] ] } },
{ "type": "Feature", "properties": { "id": "5", "name_ru": "Чиланзарская линия", "name_uz": "Чилонзор йўли" }, "geometry": { "type": "MultiLineString", "coordinates": [ [ [ 69.221483720296249, 41.203254591629239 ], [ 69.220262642106775, 41.204942888001497 ], [ 69.219748056823661, 41.205638005211775 ], [ 69.219303256115325, 41.206237331619818 ], [ 69.218768825375832, 41.206949905893666 ], [ 69.217876880688138, 41.20817562040839 ], [ 69.217038038263098, 41.209332056861655 ], [ 69.216793419833081, 41.209664236925434 ], [ 69.21593785939892, 41.210834831416598 ], [ 69.213483750279536, 41.214237498206572 ], [ 69.21311242840261, 41.214748696426497 ], [ 69.212959354316453, 41.214952131180723 ], [ 69.211069580140972, 41.217567408261736 ], [ 69.209142193144075, 41.220238358860477 ], [ 69.208222893366198, 41.221492315418018 ], [ 69.206731674998395, 41.223539447259213 ], [ 69.206015792135986, 41.224526713090327 ], [ 69.201187423160746, 41.231234645993723 ], [ 69.19721432024771, 41.236592919915878 ], [ 69.196815892689102, 41.237150499534906 ], [ 69.195736322402695, 41.238660256936484 ], [ 69.195293145885202, 41.239317903639488 ], [ 69.195069175589595, 41.239834956804103 ], [ 69.194999003308283, 41.240086495355449 ], [ 69.194932991821119, 41.24053170416569 ], [ 69.194921101797775, 41.240955167932029 ], [ 69.194973322975301, 41.243108987654452 ], [ 69.1949309546454, 41.243868731347654 ], [ 69.194884230969947, 41.244638106009411 ], [ 69.194867937314896, 41.245054960619406 ], [ 69.194862637703793, 41.245417061734443 ], [ 69.194883975872571, 41.245625138372326 ], [ 69.194935618666449, 41.245840381480377 ], [ 69.195080223852742, 41.24622989683769 ], [ 69.195224358134737, 41.246460621580823 ], [ 69.195376430507352, 41.246680505991833 ], [ 69.195948186734469, 41.247332142138497 ], [ 69.196452801711771, 41.247914118065715 ], [ 69.19685185489584, 41.248372066283416 ], [ 69.197046209242416, 41.248603003525652 ], [ 69.197223849634625, 41.248840886098158 ], [ 69.197301171901685, 41.249111420333868 ], [ 69.197353067641671, 41.249340946974463 ], [ 69.197372564386754, 41.249529929122502 ], [ 69.19736968185147, 41.249697597031869 ], [ 69.197360336064705, 41.24990241749574 ], [ 69.197314907974302, 41.250167147194496 ], [ 69.197273107978788, 41.250313378807334 ], [ 69.19700474706579, 41.250917725604204 ], [ 69.196236157382401, 41.252662635555545 ], [ 69.196235931312955, 41.252664885136852 ], [ 69.196126964839607, 41.253749193280676 ], [ 69.196060850885914, 41.256161244477255 ], [ 69.196126932004361, 41.256935839177878 ], [ 69.196162881266105, 41.25829512424577 ], [ 69.196211735308978, 41.258639087892085 ], [ 69.19637909125845, 41.2591608876712 ], [ 69.196823460200974, 41.260087611750656 ], [ 69.197521342466032, 41.261462276281719 ], [ 69.199797157760457, 41.265618813459191 ], [ 69.199899002710254, 41.265817125011473 ], [ 69.202043614499814, 41.269769914110952 ], [ 69.202455695144806, 41.270518031973765 ], [ 69.202820374439256, 41.271145334452129 ], [ 69.20326175219634, 41.271823024566295 ], [ 69.203663145024336, 41.272458379368523 ], [ 69.204344839954643, 41.27349592570733 ], [ 69.204870030025532, 41.27419511381057 ], [ 69.205214188222357, 41.274620347908765 ], [ 69.205326251038059, 41.274762097109935 ], [ 69.207281987185652, 41.277028043593738 ], [ 69.20742392100054, 41.277169681457273 ], [ 69.208146736990145, 41.277935847013929 ], [ 69.208692971002407, 41.278449674139345 ], [ 69.209688518168704, 41.279359154471038 ], [ 69.21197253981795, 41.281472175016305 ], [ 69.214491467583741, 41.28368515876744 ], [ 69.214992803628917, 41.284104055139274 ], [ 69.215397436235492, 41.284454561803152 ], [ 69.215918889374223, 41.284925143521562 ], [ 69.216414733778436, 41.285365697095784 ], [ 69.217033748270694, 41.285915485282302 ], [ 69.217482837148694, 41.286319432176739 ], [ 69.218265435087659, 41.287016867951372 ], [ 69.218696139062786, 41.287403101297649 ], [ 69.219139238489731, 41.287798331569938 ], [ 69.21945597653675, 41.288082828486139 ], [ 69.219804299914799, 41.288392225521989 ], [ 69.220165822798521, 41.288713024311036 ], [ 69.220362195433353, 41.288891136970349 ], [ 69.22055416343143, 41.289063393324071 ], [ 69.22156878072127, 41.289964863759032 ], [ 69.221883999913203, 41.290265596680925 ], [ 69.222296761784719, 41.290639520613254 ], [ 69.223082491509885, 41.291406688341439 ], [ 69.226354208814314, 41.294239383545502 ], [ 69.227361828886842, 41.295098601326494 ], [ 69.227902492976327, 41.295540218974672 ], [ 69.228542284863238, 41.296046596750081 ], [ 69.230037930309024, 41.297256795649744 ], [ 69.230670164596873, 41.297804680095858 ], [ 69.233382185749733, 41.300647201536826 ], [ 69.234063921288666, 41.301370295137289 ], [ 69.234401945318723, 41.301771393213606 ], [ 69.23513587018995, 41.302694966192426 ], [ 69.235535700706905, 41.303200591345259 ], [ 69.235852904797056, 41.303720471850681 ], [ 69.235917942823633, 41.303808267636839 ], [ 69.235992682655279, 41.303900719643607 ], [ 69.237337237735986, 41.305539036929055 ], [ 69.237795689701045, 41.306143175042308 ], [ 69.238536022839298, 41.307047465133287 ], [ 69.238856535211255, 41.307443172707053 ], [ 69.239080886734129, 41.30771758113152 ], [ 69.239414652083298, 41.308136416367844 ], [ 69.240296872624427, 41.309217834736465 ], [ 69.240781719532123, 41.30982671723374 ], [ 69.24109716048622, 41.310137621003385 ], [ 69.242220802997593, 41.311126492657351 ], [ 69.242651534530339, 41.311480798341108 ], [ 69.243298157704132, 41.312101015602494 ], [ 69.243587973342642, 41.31237948693559 ], [ 69.244163005151961, 41.312984555093351 ], [ 69.244635825928341, 41.313453603591192 ], [ 69.244970330087014, 41.313839339590707 ], [ 69.245292313389882, 41.314395318547682 ], [ 69.245812746596243, 41.315322884833705 ], [ 69.246322199267922, 41.315872746256048 ], [ 69.246783303785818, 41.316292790593614 ], [ 69.247621513607456, 41.316856376234725 ], [ 69.248014114558259, 41.317090105918773 ], [ 69.248416938846503, 41.317284114896104 ], [ 69.249314852120136, 41.317596744530938 ], [ 69.249880470282918, 41.317800019231328 ], [ 69.250689992106444, 41.31794381574565 ], [ 69.25152953781388, 41.318010552278977 ], [ 69.251855066959351, 41.318017058162631 ], [ 69.253351096741085, 41.317848971225423 ], [ 69.2543527199267, 41.317799488691101 ], [ 69.255579850187416, 41.317770664266675 ], [ 69.256055184917997, 41.317731113522214 ], [ 69.25654325545473, 41.317684314742081 ], [ 69.257450888431194, 41.317617329079809 ], [ 69.258605682698814, 41.317511286898032 ], [ 69.259770146939445, 41.31743047321919 ], [ 69.261700240082149, 41.317286559258605 ], [ 69.262577439929061, 41.317193137502933 ], [ 69.263719252344842, 41.317037151286833 ], [ 69.264603261064821, 41.316853477380342 ], [ 69.267073990164292, 41.316065253416852 ], [ 69.268795933461618, 41.315563826108516 ], [ 69.26983106137186, 41.31527750842374 ], [ 69.27012271733328, 41.315198031241231 ], [ 69.270514858141794, 41.315110498048064 ], [ 69.271727803730172, 41.314807505462035 ], [ 69.272099138338376, 41.31470558060046 ], [ 69.272400334482967, 41.314619458873651 ], [ 69.272723876962857, 41.314535689312322 ], [ 69.273073626472424, 41.314423587380787 ], [ 69.273305506103938, 41.314359280778149 ], [ 69.273469631765849, 41.314308367130081 ], [ 69.273815390024808, 41.314196272424255 ], [ 69.274207325747668, 41.314062413609598 ], [ 69.274441812195192, 41.313954491616983 ], [ 69.274928589219385, 41.313704620370935 ], [ 69.275178144780156, 41.313481478539494 ], [ 69.275416423982222, 41.313233101216085 ], [ 69.275812277628049, 41.312895327718024 ], [ 69.276239950036384, 41.312537026355216 ], [ 69.276654986396082, 41.312210030428723 ], [ 69.277065675392194, 41.311987700021135 ], [ 69.277502016153036, 41.311795380030787 ], [ 69.277967092617189, 41.311607800790547 ], [ 69.278686019197266, 41.311461708581668 ], [ 69.279459495326151, 41.311387656408378 ], [ 69.279936513393537, 41.311382888481177 ], [ 69.280444107457072, 41.311439394492751 ], [ 69.280904195713049, 41.311579017690462 ], [ 69.281509110305578, 41.311819934142946 ], [ 69.282289157452951, 41.312200013850287 ], [ 69.283991910624195, 41.312984906181541 ], [ 69.284358067383806, 41.313133517972474 ], [ 69.286430613316924, 41.31407896071768 ], [ 69.294272871089106, 41.317504074955906 ], [ 69.294551795373749, 41.317629416302672 ], [ 69.294807608520401, 41.317744244372875 ], [ 69.296262535591595, 41.318391303442439 ], [ 69.296647816564928, 41.318553911997903 ], [ 69.298607293884203, 41.319439928588878 ], [ 69.299182222927683, 41.319723233400971 ], [ 69.300316091164547, 41.320279350290171 ], [ 69.301185700927277, 41.32070683092271 ], [ 69.302267462117371, 41.32102939239055 ], [ 69.303331338519499, 41.321278009574776 ], [ 69.304404991768521, 41.321311263597089 ], [ 69.304788222155366, 41.32128258169265 ], [ 69.306877933241395, 41.321146731487417 ], [ 69.307808685608421, 41.321161166355019 ], [ 69.308605324871579, 41.32124444246061 ], [ 69.309343207994303, 41.321387416829978 ], [ 69.309725872009707, 41.321492247082382 ], [ 69.310060669863532, 41.321597806482067 ], [ 69.311799575812273, 41.32218315442725 ], [ 69.312130428600014, 41.3222965376264 ], [ 69.312725714912744, 41.322481378514674 ], [ 69.313467984790762, 41.322702505982136 ], [ 69.313577454646165, 41.32273649177322 ], [ 69.313813166893965, 41.322808026154199 ], [ 69.315426364027687, 41.323287802531894 ], [ 69.317398371015159, 41.323879042824423 ], [ 69.319644465507508, 41.324547679892021 ], [ 69.321581249306391, 41.325099850404442 ], [ 69.322058133921317, 41.325210391004163 ], [ 69.322535782427153, 41.325313709810416 ], [ 69.32285437764655, 41.325361535907149 ], [ 69.323612975681542, 41.325482707504527 ], [ 69.32473567780491, 41.325656378504974 ], [ 69.325233980090871, 41.325739779227426 ], [ 69.325578936532978, 41.32579293654031 ], [ 69.325883876271277, 41.325821545741874 ], [ 69.327641740273151, 41.325999403035858 ], [ 69.331634610476186, 41.326505835840841 ] ] ] } }
]
}
