{
"type": "FeatureCollection",
"name": "Станции",
"crs": { "type": "name", "properties": { "name": "urn:ogc:def:crs:OGC:1.3:CRS84" } },
"features": [
{ "type": "Feature", "properties": { "full_id": "n1950953609", "osm_id": "1950953609", "name_ru": "Буюк Ипак Йули", "name": "Буюк Ипак Йўли", "name_ru_2": "Чиланзарская линия", "name_2": "Чилонзор йўли", "Вести": 2, "Тури": "Ер ости" }, "geometry": { "type": "Point", "coordinates": [ 69.328548646296127, 41.326114424711193 ] } },
{ "type": "Feature", "properties": { "full_id": "n5174740621", "osm_id": "5174740621", "name_ru": "Минг Урик", "name": "Минг Ўрик", "name_ru_2": "Юнусабадская линия", "name_2": "Юнусобод йўли", "Вести": 1, "Тури": "Ер ости" }, "geometry": { "type": "Point", "coordinates": [ 69.274491699700548, 41.29970525907973 ] } },
{ "type": "Feature", "properties": { "full_id": "n5174740624", "osm_id": "5174740624", "name_ru": "Айбек", "name": "Ойбек", "name_ru_2": "Узбекистанская линия", "name_2": "Ўзбекистон йўли", "Вести": 2, "Тури": "Ер ости" }, "geometry": { "type": "Point", "coordinates": [ 69.274041250805098, 41.298046333966468 ] } },
{ "type": "Feature", "properties": { "full_id": "n5174795709", "osm_id": "5174795709", "name_ru": "Шахристан", "name": "Шаҳристон", "name_ru_2": "Юнусабадская линия", "name_2": "Юнусобод йўли", "Вести": 2, "Тури": "Ер ости" }, "geometry": { "type": "Point", "coordinates": [ 69.288105736524486, 41.353170602991767 ] } },
{ "type": "Feature", "properties": { "full_id": "n5174795711", "osm_id": "5174795711", "name_ru": "Бадамзар", "name": "Бодомзор", "name_ru_2": "Юнусабадская линия", "name_2": "Юнусобод йўли", "Вести": 2, "Тури": "Ер ости" }, "geometry": { "type": "Point", "coordinates": [ 69.284574634902214, 41.337103271520959 ] } },
{ "type": "Feature", "properties": { "full_id": "n5174795713", "osm_id": "5174795713", "name_ru": "Минор", "name": "Минор", "name_ru_2": "Юнусабадская линия", "name_2": "Юнусобод йўли", "Вести": 2, "Тури": "Ер ости" }, "geometry": { "type": "Point", "coordinates": [ 69.28341290958204, 41.326842613246015 ] } },
{ "type": "Feature", "properties": { "full_id": "n5174795715", "osm_id": "5174795715", "name_ru": "Абдулла Кадыри", "name": "Абдулла Қодирий", "name_ru_2": "Юнусабадская линия", "name_2": "Юнусобод йўли", "Вести": 2, "Тури": "Ер ости" }, "geometry": { "type": "Point", "coordinates": [ 69.28178194787273, 41.32016785827215 ] } },
{ "type": "Feature", "properties": { "full_id": "n5174795717", "osm_id": "5174795717", "name_ru": "Сквер Амира Тимура", "name": "Амир Темур хиёбони", "name_ru_2": "Чиланзарская линия", "name_2": "Чилонзор йўли", "Вести": 2, "Тури": "Ер ости" }, "geometry": { "type": "Point", "coordinates": [ 69.283383884169154, 41.312706399635736 ] } },
{ "type": "Feature", "properties": { "full_id": "n5174795719", "osm_id": "5174795719", "name_ru": "Юнyc Раджаби", "name": "Юнус Ражабий", "name_ru_2": "Юнусабадская линия", "name_2": "Юнусобод йўли", "Вести": 1, "Тури": "Ер ости" }, "geometry": { "type": "Point", "coordinates": [ 69.283610241379264, 41.313833456166115 ] } },
{ "type": "Feature", "properties": { "full_id": "n5184193365", "osm_id": "5184193365", "name_ru": "Мустакиллик майдони", "name": "Мустақиллик майдони", "name_ru_2": "Чиланзарская линия", "name_2": "Чилонзор йўли", "Вести": 2, "Тури": "Ер ости" }, "geometry": { "type": "Point", "coordinates": [ 69.270969776656585, 41.314996933646874 ] } },
{ "type": "Feature", "properties": { "full_id": "n5184193367", "osm_id": "5184193367", "name_ru": "Пушкин", "name": "Пушкин", "name_ru_2": "Чиланзарская линия", "name_2": "Чилонзор йўли", "Вести": 2, "Тури": "Ер ости" }, "geometry": { "type": "Point", "coordinates": [ 69.311142350742372, 41.321961955565705 ] } },
{ "type": "Feature", "properties": { "full_id": "n5184193373", "osm_id": "5184193373", "name_ru": "Хамид Алимджан", "name": "Ҳамид Олимжон", "name_ru_2": "Чиланзарская линия", "name_2": "Чилонзор йўли", "Вести": 2, "Тури": "Ер ости" }, "geometry": { "type": "Point", "coordinates": [ 69.295736782432613, 41.318157460499769 ] } },
{ "type": "Feature", "properties": { "full_id": "n5185726872", "osm_id": "5185726872", "name_ru": "Чиланзар", "name": "Чилонзор", "name_ru_2": "Чиланзарская линия", "name_2": "Чилонзор йўли", "Вести": 2, "Тури": "Ер ости" }, "geometry": { "type": "Point", "coordinates": [ 69.204999300704884, 41.274354613989892 ] } },
{ "type": "Feature", "properties": { "full_id": "n5185726874", "osm_id": "5185726874", "name_ru": "Алмазар", "name": "Олмазор", "name_ru_2": "Чиланзарская линия", "name_2": "Чилонзор йўли", "Вести": 2, "Тури": "Ер ости" }, "geometry": { "type": "Point", "coordinates": [ 69.196109339309601, 41.256729298137728 ] } },
{ "type": "Feature", "properties": { "full_id": "n5185753346", "osm_id": "5185753346", "name_ru": "Алишер Навои", "name": "Алишер Навоий", "name_ru_2": "Узбекистанская линия", "name_2": "Ўзбекистон йўли", "Вести": 1, "Тури": "Ер ости" }, "geometry": { "type": "Point", "coordinates": [ 69.254291463330546, 41.318915566516004 ] } },
{ "type": "Feature", "properties": { "full_id": "n5185753349", "osm_id": "5185753349", "name_ru": "Пахтакор", "name": "Пахтакор", "name_ru_2": "Чиланзарская линия", "name_2": "Чилонзор йўли", "Вести": 2, "Тури": "Ер ости" }, "geometry": { "type": "Point", "coordinates": [ 69.255150535450483, 41.317780770475437 ] } },
{ "type": "Feature", "properties": { "full_id": "n5185753350", "osm_id": "5185753350", "name_ru": "Дружба Народов", "name": "Халқлар Дўстлиги", "name_ru_2": "Чиланзарская линия", "name_2": "Чилонзор йўли", "Вести": 2, "Тури": "Ер ости" }, "geometry": { "type": "Point", "coordinates": [ 69.24315312656671, 41.311961883375481 ] } },
{ "type": "Feature", "properties": { "full_id": "n5185753352", "osm_id": "5185753352", "name_ru": "Миллий Бог", "name": "Миллий боғ", "name_ru_2": "Чиланзарская линия", "name_2": "Чилонзор йўли", "Вести": 2, "Тури": "Ер ости" }, "geometry": { "type": "Point", "coordinates": [ 69.23564664926343, 41.303385205347396 ] } },
{ "type": "Feature", "properties": { "full_id": "n5185753354", "osm_id": "5185753354", "name_ru": "Новза", "name": "Новза", "name_ru_2": "Чиланзарская линия", "name_2": "Чилонзор йўли", "Вести": 2, "Тури": "Ер ости" }, "geometry": { "type": "Point", "coordinates": [ 69.22364079717947, 41.291890433179475 ] } },
{ "type": "Feature", "properties": { "full_id": "n5185753357", "osm_id": "5185753357", "name_ru": "Мирзо Улугбек", "name": "Мирзо Улуғбек", "name_ru_2": "Чиланзарская линия", "name_2": "Чилонзор йўли", "Вести": 2, "Тури": "Ер ости" }, "geometry": { "type": "Point", "coordinates": [ 69.212601470521207, 41.282025314970049 ] } },
{ "type": "Feature", "properties": { "full_id": "n5185762194", "osm_id": "5185762194", "name_ru": "Космонавтов", "name": "Космонавтлар", "name_ru_2": "Узбекистанская линия", "name_2": "Ўзбекистон йўли", "Вести": 2, "Тури": "Ер ости" }, "geometry": { "type": "Point", "coordinates": [ 69.264877195084168, 41.305109786925627 ] } },
{ "type": "Feature", "properties": { "full_id": "n5185762197", "osm_id": "5185762197", "name_ru": "Узбекистан", "name": "Ўзбекистон", "name_ru_2": "Узбекистанская линия", "name_2": "Ўзбекистон йўли", "Вести": 2, "Тури": "Ер ости" }, "geometry": { "type": "Point", "coordinates": [ 69.2535604, 41.3124055 ] } },
{ "type": "Feature", "properties": { "full_id": "n5185798526", "osm_id": "5185798526", "name_ru": "Ташкент", "name": "Тошкент", "name_ru_2": "Узбекистанская линия", "name_2": "Ўзбекистон йўли", "Вести": 2, "Тури": "Ер ости" }, "geometry": { "type": "Point", "coordinates": [ 69.287456831099121, 41.293099066648246 ] } },
{ "type": "Feature", "properties": { "full_id": "n5194171823", "osm_id": "5194171823", "name_ru": "Беруни", "name": "Беруний", "name_ru_2": "Узбекистанская линия", "name_2": "Ўзбекистон йўли", "Вести": 2, "Тури": "Ер ости" }, "geometry": { "type": "Point", "coordinates": [ 69.206430486028196, 41.345079464798481 ] } },
{ "type": "Feature", "properties": { "full_id": "n5194171824", "osm_id": "5194171824", "name_ru": "Тинчлик", "name": "Тинчлик", "name_ru_2": "Узбекистанская линия", "name_2": "Ўзбекистон йўли", "Вести": 2, "Тури": "Ер ости" }, "geometry": { "type": "Point", "coordinates": [ 69.21914490969327, 41.332263849967418 ] } },
{ "type": "Feature", "properties": { "full_id": "n5194171826", "osm_id": "5194171826", "name_ru": "Чорсу", "name": "Чорсу", "name_ru_2": "Узбекистанская линия", "name_2": "Ўзбекистон йўли", "Вести": 2, "Тури": "Ер ости" }, "geometry": { "type": "Point", "coordinates": [ 69.236788953211317, 41.325858102146626 ] } },
{ "type": "Feature", "properties": { "full_id": "n5194171828", "osm_id": "5194171828", "name_ru": "Гафура Гуляма", "name": "Ғафур Ғулом", "name_ru_2": "Узбекистанская линия", "name_2": "Ўзбекистон йўли", "Вести": 2, "Тури": "Ер ости" }, "geometry": { "type": "Point", "coordinates": [ 69.245905359849687, 41.327874371979149 ] } },
{ "type": "Feature", "properties": { "full_id": "n5194171831", "osm_id": "5194171831", "name_ru": "Машиносозлар", "name": "Машинасозлар", "name_ru_2": "Узбекистанская линия", "name_2": "Ўзбекистон йўли", "Вести": 2, "Тури": "Ер ости" }, "geometry": { "type": "Point", "coordinates": [ 69.30520486152129, 41.299015210826191 ] } },
{ "type": "Feature", "properties": { "full_id": "n5194171833", "osm_id": "5194171833", "name_ru": "Дустлик", "name": "Дўстлик", "name_ru_2": "Узбекистанская линия", "name_2": "Ўзбекистон йўли", "Вести": 2, "Тури": "Ер ости" }, "geometry": { "type": "Point", "coordinates": [ 69.322332563868471, 41.293637044297547 ] } },
{ "type": "Feature", "properties": { "full_id": "n6761195243", "osm_id": "6761195243", "name_ru": "Юнусабад", "name": "Юнусобод", "name_ru_2": "Юнусабадская линия", "name_2": "Юнусобод йўли", "Вести": 2, "Тури": "Ер ости" }, "geometry": { "type": "Point", "coordinates": [ 69.292193796505259, 41.366625993579767 ] } },
{ "type": "Feature", "properties": { "full_id": "n6902085593", "osm_id": "6902085593", "name_ru": "Яшнабад", "name": "Яшнобод", "name_ru_2": "Линия Тридцатилетия независимости Узбекистана", "name_2": "Ўзбекистон мустақиллигининг 30 йиллиги ер усти ҳалқа йўли", "Вести": 1, "Тури": "Ер усти" }, "geometry": { "type": "Point", "coordinates": [ 69.349767023593344, 41.297563989325987 ] } },
{ "type": "Feature", "properties": { "full_id": "n6923918549", "osm_id": "6923918549", "name_ru": "Технопарк", "name": "Технопарк", "name_ru_2": "Линия Тридцатилетия независимости Узбекистана", "name_2": "Ўзбекистон мустақиллигининг 30 йиллиги ер усти ҳалқа йўли", "Вести": 1, "Тури": "Ер усти" }, "geometry": { "type": "Point", "coordinates": [ 69.323302534336534, 41.294647209947911 ] } },
{ "type": "Feature", "properties": { "full_id": "n7596256675", "osm_id": "7596256675", "name_ru": "Тузель", "name": "Тузел", "name_ru_2": "Линия Тридцатилетия независимости Узбекистана", "name_2": "Ўзбекистон мустақиллигининг 30 йиллиги ер усти ҳалқа йўли", "Вести": 1, "Тури": "Ер усти" }, "geometry": { "type": "Point", "coordinates": [ 69.356176396404919, 41.292034819174908 ] } },
{ "type": "Feature", "properties": { "full_id": "n7597594278", "osm_id": "7597594278", "name_ru": "Алмас", "name": "Олмос", "name_ru_2": "Линия Тридцатилетия независимости Узбекистана", "name_2": "Ўзбекистон мустақиллигининг 30 йиллиги ер усти ҳалқа йўли", "Вести": 1, "Тури": "Ер усти" }, "geometry": { "type": "Point", "coordinates": [ 69.36034679571712, 41.281806363552242 ] } },
{ "type": "Feature", "properties": { "full_id": "n7597627323", "osm_id": "7597627323", "name_ru": "Рахат", "name": "Роҳат", "name_ru_2": "Линия Тридцатилетия независимости Узбекистана", "name_2": "Ўзбекистон мустақиллигининг 30 йиллиги ер усти ҳалқа йўли", "Вести": 1, "Тури": "Ер усти" }, "geometry": { "type": "Point", "coordinates": [ 69.364819204937888, 41.265339452417905 ] } },
{ "type": "Feature", "properties": { "full_id": "n7862012476", "osm_id": "7862012476", "name_ru": "Туркистан", "name": "Туркистон", "name_ru_2": "Юнусабадская линия", "name_2": "Юнусобод йўли", "Вести": 2, "Тури": "Ер ости" }, "geometry": { "type": "Point", "coordinates": [ 69.296088987016049, 41.377518004443232 ] } },
{ "type": "Feature", "properties": { "full_id": "n7910174392", "osm_id": "7910174392", "name_ru": "Янгиабад", "name": "Янгиобод", "name_ru_2": "Линия Тридцатилетия независимости Узбекистана", "name_2": "Ўзбекистон мустақиллигининг 30 йиллиги ер усти ҳалқа йўли", "Вести": 1, "Тури": "Ер усти" }, "geometry": { "type": "Point", "coordinates": [ 69.358686860606326, 41.25649291680088 ] } },
{ "type": "Feature", "properties": { "full_id": "n7926229127", "osm_id": "7926229127", "name_ru": "Куйлюк", "name": "Қўйлиқ", "name_ru_2": "Линия Тридцатилетия независимости Узбекистана", "name_2": "Ўзбекистон мустақиллигининг 30 йиллиги ер усти ҳалқа йўли", "Вести": 1, "Тури": "Ер усти" }, "geometry": { "type": "Point", "coordinates": [ 69.327156166051324, 41.237475371678364 ] } },
{ "type": "Feature", "properties": { "full_id": "n9209214732", "osm_id": "9209214732", "name_ru": "Курувчилар", "name": "Қурувчилар", "name_ru_2": "Линия Тридцатилетия независимости Узбекистана", "name_2": "Ўзбекистон мустақиллигининг 30 йиллиги ер усти ҳалқа йўли", "Вести": 1, "Тури": "Ер усти" }, "geometry": { "type": "Point", "coordinates": [ 69.26053018755232, 41.221629399141804 ] } },
{ "type": "Feature", "properties": { "full_id": "n9972849128", "osm_id": "9972849128", "name_ru": "Киёт", "name": "Қиёт", "name_ru_2": "Линия Тридцатилетия независимости Узбекистана", "name_2": "Ўзбекистон мустақиллигининг 30 йиллиги ер усти ҳалқа йўли", "Вести": 1, "Тури": "Ер усти" }, "geometry": { "type": "Point", "coordinates": [ 69.299743447337633, 41.244476503688837 ] } },
{ "type": "Feature", "properties": { "full_id": "n10541839543", "osm_id": "10541839543", "name_ru": "Узгариш", "name": "Ўзгариш", "name_ru_2": "Чиланзарская линия", "name_2": "Чилонзор йўли", "Вести": 1, "Тури": "Ер усти" }, "geometry": { "type": "Point", "coordinates": [ 69.204059958955142, 41.227248302383266 ] } },
{ "type": "Feature", "properties": { "full_id": "n10541839545", "osm_id": "10541839545", "name_ru": "Чоштепа", "name": "Чоштепа", "name_ru_2": "Чиланзарская линия", "name_2": "Чилонзор йўли", "Вести": 1, "Тури": "Ер ости" }, "geometry": { "type": "Point", "coordinates": [ 69.196171896743195, 41.238057243583327 ] } },
{ "type": "Feature", "properties": { "full_id": "n10541839547", "osm_id": "10541839547", "name_ru": "Чинара", "name": "Чинор", "name_ru_2": "Чиланзарская линия", "name_2": "Чилонзор йўли", "Вести": 1, "Тури": "Ер усти" }, "geometry": { "type": "Point", "coordinates": [ 69.219054713787244, 41.206568941437382 ] } },
{ "type": "Feature", "properties": { "full_id": "n10541839548", "osm_id": "10541839548", "name_ru": "Сергели", "name": "Сергели", "name_ru_2": "Чиланзарская линия", "name_2": "Чилонзор йўли", "Вести": 1, "Тури": "Ер усти" }, "geometry": { "type": "Point", "coordinates": [ 69.208848161401633, 41.220639462382962 ] } },
{ "type": "Feature", "properties": { "full_id": "n10541839550", "osm_id": "10541839550", "name_ru": "Янгихаёт", "name": "Янгиҳаёт", "name_ru_2": "Чиланзарская линия", "name_2": "Чилонзор йўли", "Вести": 1, "Тури": "Ер усти" }, "geometry": { "type": "Point", "coordinates": [ 69.214089207790636, 41.213404764577874 ] } },
{ "type": "Feature", "properties": { "full_id": "n10846611077", "osm_id": "10846611077", "name_ru": "Ханабад", "name": "Хонабод", "name_ru_2": "Линия Тридцатилетия независимости Узбекистана", "name_2": "Ўзбекистон мустақиллигининг 30 йиллиги ер усти ҳалқа йўли", "Вести": 1, "Тури": "Ер усти" }, "geometry": { "type": "Point", "coordinates": [ 69.270358542333028, 41.230012956872045 ] } },
{ "type": "Feature", "properties": { "full_id": "n10846611079", "osm_id": "10846611079", "name_ru": "Таларык", "name": "Толариқ", "name_ru_2": "Линия Тридцатилетия независимости Узбекистана", "name_2": "Ўзбекистон мустақиллигининг 30 йиллиги ер усти ҳалқа йўли", "Вести": 1, "Тури": "Ер усти" }, "geometry": { "type": "Point", "coordinates": [ 69.285020881061698, 41.244525170142815 ] } },
{ "type": "Feature", "properties": { "full_id": "n10846611081", "osm_id": "10846611081", "name_ru": "Матонат", "name": "Матонат", "name_ru_2": "Линия Тридцатилетия независимости Узбекистана", "name_2": "Ўзбекистон мустақиллигининг 30 йиллиги ер усти ҳалқа йўли", "Вести": 1, "Тури": "Ер усти" }, "geometry": { "type": "Point", "coordinates": [ 69.308333547902208, 41.244499988967078 ] } },
{ "type": "Feature", "properties": { "full_id": "n11534936797", "osm_id": "11534936797", "name_ru": "Кипчак", "name": "Қипчоқ", "name_ru_2": "Линия Тридцатилетия независимости Узбекистана", "name_2": "Ўзбекистон мустақиллигининг 30 йиллиги ер усти ҳалқа йўли", "Вести": 1, "Тури": "Ер усти" }, "geometry": { "type": "Point", "coordinates": [ 69.2214053141698, 41.205422205731089 ] } },
{ "type": "Feature", "properties": { "full_id": "n11534936799", "osm_id": "11534936799", "name_ru": "Туран", "name": "Турон", "name_ru_2": "Линия Тридцатилетия независимости Узбекистана", "name_2": "Ўзбекистон мустақиллигининг 30 йиллиги ер усти ҳалқа йўли", "Вести": 1, "Тури": "Ер усти" }, "geometry": { "type": "Point", "coordinates": [ 69.234154371759345, 41.210646399465055 ] } }
]
}
