{
"type": "FeatureCollection",
"name": "Линия",
"crs": { "type": "name", "properties": { "name": "urn:ogc:def:crs:OGC:1.3:CRS84" } },
"features": [
{ "type": "Feature", "properties": { "fid": 274, "Тип": "Электричка" }, "geometry": { "type": "LineString", "coordinates": [ [ 69.392177703978319, 41.367407089979729 ], [ 69.391770961639367, 41.366892080819902 ], [ 69.39142901253409, 41.366601608358614 ], [ 69.390820267973069, 41.366249091493913 ], [ 69.390301707791437, 41.366000918475592 ], [ 69.386586314122894, 41.364841069380411 ], [ 69.386209768110987, 41.364725458516268 ], [ 69.385097671151286, 41.364299556109955 ], [ 69.383813829413626, 41.363804947276783 ], [ 69.382292981777596, 41.363326566997358 ], [ 69.381930669947607, 41.36321260185106 ], [ 69.380286755438235, 41.362545014184192 ], [ 69.37997573833745, 41.362422275577593 ], [ 69.379898680182109, 41.36238770913755 ], [ 69.378403094835463, 41.361925517673242 ], [ 69.377580324261629, 41.361675251797223 ], [ 69.376456557049067, 41.361474655149848 ], [ 69.375511141198714, 41.361329912309408 ], [ 69.375170694485988, 41.361291617690867 ], [ 69.374420478728297, 41.361319714137672 ], [ 69.372998376733719, 41.361401227666299 ], [ 69.369837353311013, 41.361829597790027 ], [ 69.366805066892013, 41.362260657097522 ], [ 69.365550430154514, 41.362469915251815 ], [ 69.364849237290599, 41.362492658869407 ], [ 69.36418132232744, 41.362442513225268 ], [ 69.363764893790602, 41.362391234196949 ], [ 69.363353728477875, 41.362306584524994 ], [ 69.362892140054811, 41.362180837069914 ], [ 69.362381791426031, 41.361902252815092 ], [ 69.361973822482412, 41.36157005617796 ], [ 69.36157089007051, 41.361140903673203 ], [ 69.360333745740675, 41.359638834473124 ], [ 69.359106495981791, 41.358126550022206 ], [ 69.35810248357528, 41.356975578161496 ], [ 69.357560344282462, 41.356477698233938 ], [ 69.357007197313635, 41.356030121764071 ], [ 69.355839121120439, 41.355451648745358 ], [ 69.35549205131835, 41.355290189786501 ], [ 69.354778425427526, 41.355059559420802 ], [ 69.354195962575389, 41.354906518042228 ], [ 69.353508585601787, 41.354802182880647 ], [ 69.353009402458611, 41.354728383963675 ], [ 69.352463335369094, 41.354665238672361 ], [ 69.351847395114874, 41.354670561338757 ], [ 69.351295156006358, 41.354709260000128 ], [ 69.350784396354669, 41.354758949204431 ], [ 69.349882258938692, 41.354998913823785 ], [ 69.347513010093948, 41.355635236873333 ], [ 69.346938781848479, 41.355764173449536 ], [ 69.346547213514867, 41.355851990760421 ], [ 69.345780829105465, 41.355953307574943 ], [ 69.345141596145766, 41.356016419396468 ], [ 69.343840028306829, 41.355999857192906 ], [ 69.343284949914363, 41.355950465610519 ], [ 69.34306055224863, 41.355920502742599 ], [ 69.342407910637434, 41.35576399118353 ], [ 69.341928756444929, 41.355632751932873 ], [ 69.339710031253006, 41.354644339140329 ], [ 69.339606986492726, 41.354598885631241 ], [ 69.336883835836474, 41.353397795081328 ], [ 69.336141994029205, 41.353070343386101 ], [ 69.335011202659175, 41.352127781774357 ], [ 69.333970826379257, 41.351212872543087 ], [ 69.332421591290839, 41.349814673376947 ], [ 69.325457560320729, 41.343494989212985 ], [ 69.32422717614611, 41.342386282864332 ], [ 69.322994994133325, 41.341271334172227 ], [ 69.322359582080182, 41.340636451437064 ], [ 69.3220419305256, 41.340265085306328 ], [ 69.321595181959495, 41.339448894250864 ], [ 69.321344873183435, 41.3383736740128 ], [ 69.320952016416129, 41.336436295722187 ], [ 69.320070284900467, 41.333638145283707 ], [ 69.320006608897415, 41.333363136199132 ], [ 69.31974071030794, 41.332499774151628 ], [ 69.319547615085284, 41.33215639271824 ], [ 69.319444234538466, 41.332001971328417 ], [ 69.319370686199974, 41.331885284668139 ], [ 69.319142803356414, 41.331687374357344 ], [ 69.318960750443054, 41.331534030123628 ], [ 69.318697710459205, 41.331374893433789 ], [ 69.318159457136076, 41.331051069612059 ], [ 69.317834646835948, 41.330850846091558 ], [ 69.317257724402452, 41.330391750516014 ], [ 69.316886710752939, 41.330067884904508 ], [ 69.316478389759311, 41.329573941390137 ], [ 69.315891279067216, 41.328896450913739 ], [ 69.315725609983858, 41.32858415573132 ], [ 69.31535273269661, 41.32787008101954 ], [ 69.315087024774925, 41.327152273713935 ], [ 69.314927112847371, 41.326619826502338 ], [ 69.313992710371039, 41.323885756920987 ], [ 69.313785913235591, 41.323316364640853 ], [ 69.313146975029511, 41.321557117684748 ], [ 69.312508414548077, 41.319626713632879 ], [ 69.312013052312224, 41.318063180062055 ], [ 69.311792157441602, 41.317651822204468 ], [ 69.310859761088849, 41.316244775147744 ], [ 69.309386297090327, 41.314196274497036 ], [ 69.308128802358738, 41.312480659920148 ], [ 69.306793376760211, 41.310662099466519 ], [ 69.305790308216316, 41.309698696915028 ], [ 69.305394740263438, 41.309423673808375 ], [ 69.302792319700387, 41.307760606196091 ], [ 69.300127719976601, 41.306068563203993 ], [ 69.299369704743796, 41.305478038380286 ], [ 69.299067134893946, 41.305198856183189 ], [ 69.298853957015496, 41.304956926860974 ], [ 69.298371612953019, 41.304358886811073 ], [ 69.297876319871406, 41.303485788605073 ], [ 69.29761904963398, 41.3025794295487 ], [ 69.297478091082951, 41.301658414633494 ], [ 69.297383224199976, 41.299843404638459 ], [ 69.297224071118677, 41.298929311936838 ], [ 69.297112943772021, 41.298551420528213 ], [ 69.296818486045709, 41.297957408794964 ], [ 69.296224520337191, 41.297133967607472 ], [ 69.295622720092098, 41.296548683859172 ], [ 69.295000352280866, 41.296115884159185 ], [ 69.293253823662084, 41.294972059113014 ], [ 69.286697080335543, 41.290730776342272 ], [ 69.282994563440454, 41.28833577316081 ], [ 69.282242591348137, 41.287833953496801 ], [ 69.282151101217963, 41.287757682455222 ], [ 69.281837678217826, 41.28747997287487 ], [ 69.281384212780139, 41.286963664365359 ], [ 69.280727167592801, 41.286270794020602 ], [ 69.279850205330405, 41.285308572185038 ], [ 69.279108338893096, 41.284490411771017 ], [ 69.278391733932551, 41.28371344129107 ], [ 69.272379574311728, 41.277032325074778 ], [ 69.271457051546633, 41.276013418378589 ], [ 69.270710746037224, 41.275172865845192 ], [ 69.269889019834366, 41.274272320165757 ], [ 69.269140426396604, 41.273419729531149 ], [ 69.268183666008397, 41.27236133891121 ], [ 69.266032586063346, 41.270073182209146 ], [ 69.265463165211742, 41.269477659494072 ], [ 69.265115463684864, 41.269214078000338 ], [ 69.264457218995929, 41.268701610362712 ], [ 69.263874674886793, 41.268314452574259 ], [ 69.263255912295207, 41.267984101696342 ], [ 69.262737794649382, 41.267751500956997 ], [ 69.262167362010089, 41.267539645038937 ], [ 69.261088644946923, 41.267272212984352 ], [ 69.260495828240167, 41.267158382652731 ], [ 69.258651394648567, 41.26683593060276 ], [ 69.256827503771248, 41.266518560158481 ], [ 69.255486958131613, 41.266286039364751 ], [ 69.253722359005167, 41.26597536410172 ], [ 69.252235927963213, 41.265717341774064 ], [ 69.250973173396901, 41.265483199448219 ], [ 69.236974954797105, 41.262887623477553 ], [ 69.234979559851425, 41.262331317853651 ], [ 69.233802349275777, 41.261859269228374 ], [ 69.231411116842352, 41.260798317392769 ], [ 69.226717116988411, 41.258705796400292 ], [ 69.223425635456579, 41.257238559299147 ], [ 69.218212094292269, 41.254725056849324 ], [ 69.216597082259597, 41.2539401853263 ], [ 69.215679321967386, 41.253413069777594 ], [ 69.213716623548152, 41.252261556617668 ], [ 69.212926856100978, 41.251754193570108 ], [ 69.211918125327315, 41.251150963825175 ], [ 69.209002005361953, 41.249410030195399 ], [ 69.205806847067649, 41.247510875395996 ], [ 69.203515619191322, 41.246067542098366 ], [ 69.201023795827737, 41.244535124652067 ], [ 69.198865141476901, 41.243180854972543 ], [ 69.196998675716245, 41.242022012173223 ], [ 69.194196792737742, 41.24027338035863 ], [ 69.191901628782119, 41.238867638768504 ], [ 69.189761497663184, 41.237489099845547 ], [ 69.188577439948446, 41.236743274653577 ], [ 69.187903073205277, 41.236202826189029 ], [ 69.187002254004582, 41.235384385435495 ], [ 69.183234329288084, 41.23161892710111 ], [ 69.179181647547892, 41.227571712679136 ], [ 69.178882336485572, 41.227266348312007 ], [ 69.176587481069703, 41.22495905343763 ], [ 69.175432342133078, 41.223763211517443 ], [ 69.175197235657848, 41.223472988263914 ], [ 69.174829334680908, 41.22297159450472 ], [ 69.174432733162675, 41.222377416082928 ], [ 69.174013000100558, 41.221643171282516 ], [ 69.173637335787504, 41.220781651119161 ], [ 69.173231832881868, 41.219824768999416 ], [ 69.172906576430393, 41.219077485030468 ], [ 69.172709622939507, 41.218588590491635 ] ] } },
{ "type": "Feature", "properties": { "fid": 3433, "Тип": "Электричка" }, "geometry": { "type": "LineString", "coordinates": [ [ 69.320070284900467, 41.333638145283707 ], [ 69.319575702405828, 41.332690062958022 ], [ 69.319272149358639, 41.332175210889545 ], [ 69.318969540196164, 41.331852881323506 ], [ 69.318676458231636, 41.331613035696023 ], [ 69.318200802676643, 41.331346190483053 ], [ 69.317707407967418, 41.33118253118009 ], [ 69.317095629149634, 41.331060451532473 ], [ 69.316456985592453, 41.331041581423179 ], [ 69.315745897174608, 41.331132921383663 ], [ 69.315017291286281, 41.331375575319868 ], [ 69.314353063751696, 41.331728063675904 ], [ 69.313907695785232, 41.332066199642185 ], [ 69.313390498617963, 41.332645186913595 ], [ 69.312800510791689, 41.333265625212448 ], [ 69.314358054203609, 41.330868558995967 ], [ 69.314764408566944, 41.330007957273615 ], [ 69.314997868862633, 41.329237214391632 ], [ 69.315095525273975, 41.328679996669244 ], [ 69.315066855356889, 41.328017402799084 ], [ 69.314968114581589, 41.327402277070178 ], [ 69.314739502306423, 41.326728205880279 ], [ 69.31435008942789, 41.325415966535587 ], [ 69.31373276120506, 41.323173516956693 ] ] } }
]
}
